[{"OBJECT_NAME":"STARLINK-5934","OBJECT_ID":"2023-042AH","EPOCH":"2026-03-09T22:00:01.999584","MEAN_MOTION":15.05779477,"ECCENTRICITY":0.00015023,"INCLINATION":43.0001,"RA_OF_ASC_NODE":42.1494,"ARG_OF_PERICENTER":244.2572,"MEAN_ANOMALY":27.6084,"EPHEMERIS_TYPE":0,"CLASSIFICATION_TYPE":"U","NORAD_CAT_ID":56017,"ELEMENT_SET_NO":999,"REV_AT_EPOCH":577,"BSTAR":0.0038723106,"MEAN_MOTION_DOT":0.00057305,"MEAN_MOTION_DDOT":0},{"OBJECT_NAME":"SL-12 R\/B(AUX MOTOR)","OBJECT_ID":"2010-041G","EPOCH":"2026-03-09T13:00:28.817280","MEAN_MOTION":8.77287771,"ECCENTRICITY":0.32964681,"INCLINATION":64.4404,"RA_OF_ASC_NODE":286.217,"ARG_OF_PERICENTER":285.0973,"MEAN_ANOMALY":41.2978,"EPHEMERIS_TYPE":0,"CLASSIFICATION_TYPE":"U","NORAD_CAT_ID":37143,"ELEMENT_SET_NO":999,"REV_AT_EPOCH":27327,"BSTAR":0.0043564678,"MEAN_MOTION_DOT":0.00085123,"MEAN_MOTION_DDOT":0}]
